NORAD_CAT_ID,OBJECT_NAME,OBJECT_TYPE,EPOCH,MEAN_MOTION,ECCENTRICITY,INCLINATION,RA_OF_ASC_NODE,ARG_OF_PERICENTER,MEAN_ANOMALY,BSTAR,MEAN_MOTION_DOT,MEAN_MOTION_DDOT,TLE_LINE0,TLE_LINE1,TLE_LINE2,SEMIMAJOR_AXIS,PERIOD,APOGEE,PERIGEE,DECAYED
56794.0,STARLINK-6060,PAYLOAD,2024-01-03 12:11:12,14.98327977,0.0002784,69.9994,171.8932,263.4196,96.6646,-4.0343e-05,-5.74e-06,0.0,0 STARLINK-6060,1 56794U 23078AD  24003.50778086 -.00000574  00000-0 -40343-4 0  9997,2 56794  69.9994 171.8932 0002784 263.4196  96.6646 14.98327977 34171,6950.199,96.107,573.999,570.129,0.0
56794.0,STARLINK-6060,PAYLOAD,2024-01-03 13:47:20,14.98327327,0.000291,69.9994,171.7251,266.7883,93.2943,-4.2601e-05,-6.01e-06,0.0,0 STARLINK-6060,1 56794U 23078AD  24003.57454142 -.00000601  00000-0 -42601-4 0  9998,2 56794  69.9994 171.7251 0002910 266.7883  93.2943 14.98327327 33928,6950.201,96.107,574.089,570.044,0.0
56794.0,STARLINK-6060,PAYLOAD,2024-01-03 20:11:52,14.98341096,0.0002649,69.9994,171.0519,260.0509,100.0351,-0.00028217,-3.459e-05,0.0,0 STARLINK-6060,1 56794U 23078AD  24003.84157830 -.00003459  00000-0 -28217-3 0  9992,2 56794  69.9994 171.0519 0002649 260.0509 100.0351 14.98341096 33962,6950.159,96.106,573.865,570.182,0.0
56794.0,STARLINK-6060,PAYLOAD,2024-01-04 18:35:48,14.99875575,0.0010217,70.0,168.6925,316.0079,44.0267,0.017023,0.00218183,0.0,0 STARLINK-6060,1 56794U 23078AD  24004.77486378  .00218183  00000-0  17023-1 0  9998,2 56794  70.0000 168.6925 0010217 316.0079  44.0267 14.99875575 34363,6945.417,96.008,574.379,560.186,0.0
56794.0,STARLINK-6060,PAYLOAD,2024-01-05 06:00:00,14.98293549,0.0003153,70.0004,167.5002,266.1739,128.8294,0.0043302,0.0005191,0.0,0 STARLINK-6060,1 56794U 23078AD  24005.25001157  .00051910  00000-0  43302-2 0  9993,2 56794  70.0004 167.5002 0003153 266.1739 128.8294 14.98293549 34433,6950.306,96.109,574.362,569.979,0.0
56794.0,STARLINK-6060,PAYLOAD,2024-01-05 12:15:15,14.98317382,0.000276,69.9988,166.8427,257.5179,102.5672,-0.0002177,-2.689e-05,0.0,0 STARLINK-6060,1 56794U 23078AD  24005.51059256 -.00002689  00000-0 -21770-3 0  9992,2 56794  69.9988 166.8427 0002760 257.5179 102.5672 14.98317382 34474,6950.232,96.108,574.015,570.179,0.0
56794.0,STARLINK-6060,PAYLOAD,2024-01-05 13:51:14,14.98433741,0.0002619,69.9995,166.6742,233.1141,126.9779,0.0011726,0.00013964,0.0,0 STARLINK-6060,1 56794U 23078AD  24005.57724578  .00013964  00000-0  11726-2 0  9999,2 56794  69.9995 166.6742 0002619 233.1141 126.9779 14.98433741 34221,6949.872,96.1,573.557,569.917,0.0
56794.0,STARLINK-6060,PAYLOAD,2024-01-05 20:15:56,14.98280041,0.0003028,70.0013,166.0024,263.3162,96.7652,-0.000301,-3.678e-05,0.0,0 STARLINK-6060,1 56794U 23078AD  24005.84440936 -.00003678  00000-0 -30100-3 0  9993,2 56794  70.0013 166.0024 0003028 263.3162  96.7652 14.98280041 34525,6950.347,96.11,574.317,570.108,0.0
56794.0,STARLINK-6060,PAYLOAD,2024-01-06 12:17:21,14.98241823,0.0002341,70.0014,164.3195,255.884,104.2059,-0.00076578,-9.197e-05,0.0,0 STARLINK-6060,1 56794U 23078AD  24006.51204920 -.00009197  00000-0 -76578-3 0  9990,2 56794  70.0014 164.3195 0002341 255.8840 104.2059 14.98241823 34624,6950.466,96.113,573.958,570.703,0.0
56794.0,STARLINK-6060,PAYLOAD,2024-01-06 18:41:47,14.98330839,0.0002718,70.0002,163.6455,261.1683,98.9168,3.1949e-05,2.88e-06,0.0,0 STARLINK-6060,1 56794U 23078AD  24006.77901763  .00000288  00000-0  31949-4 0  9991,2 56794  70.0002 163.6455 0002718 261.1683  98.9168 14.98330839 34665,6950.19,96.107,573.944,570.166,0.0
56794.0,STARLINK-6060,PAYLOAD,2024-01-06 20:17:55,14.98329594,0.0002823,70.0002,163.4773,266.491,93.5926,1.9627e-05,1.41e-06,0.0,0 STARLINK-6060,1 56794U 23078AD  24006.84577867  .00000141  00000-0  19627-4 0  9990,2 56794  70.0002 163.4773 0002823 266.4910  93.5926 14.98329594 34416,6950.194,96.107,574.021,570.097,0.0
56794.0,STARLINK-6060,PAYLOAD,2024-01-07 13:55:23,14.98328547,0.0003047,69.9998,161.6264,266.3409,93.7402,5.6314e-05,5.79e-06,0.0,0 STARLINK-6060,1 56794U 23078AD  24007.58013774  .00000579  00000-0  56314-4 0  9993,2 56794  69.9998 161.6264 0003047 266.3409  93.7402 14.98328547 34523,6950.197,96.107,574.18,569.945,0.0
56794.0,STARLINK-6060,PAYLOAD,2024-01-07 20:19:55,14.98367576,0.0002596,69.9998,160.9537,257.9868,102.1001,-0.00057889,-7e-05,0.0,0 STARLINK-6060,1 56794U 23078AD  24007.84716718 -.00007000  00000-0 -57889-3 0  9995,2 56794  69.9998 160.9537 0002596 257.9868 102.1001 14.98367576 34829,6950.077,96.105,573.746,570.137,0.0
56794.0,STARLINK-6060,PAYLOAD,2024-01-08 06:00:00,14.98293826,0.00032,70.0001,159.9365,268.0003,104.3656,0.0058688,0.00070577,0.0,0 STARLINK-6060,1 56794U 23078AD  24008.25001157  .00070577  00000-0  58688-2 0  9999,2 56794  70.0001 159.9365 0003200 268.0003 104.3656 14.98293826 34883,6950.305,96.109,574.394,569.946,0.0
56794.0,STARLINK-6060,PAYLOAD,2024-01-08 14:00:01,14.98358879,0.0003228,70.0002,159.0962,270.0538,99.7747,-0.0038811,-0.00046134,0.0,0 STARLINK-6060,1 56794U 23078AD  24008.58334491 -.00046134  00000-0 -38811-2 0  9995,2 56794  70.0002 159.0962 0003228 270.0538  99.7747 14.98358879  5813,6950.104,96.105,574.212,569.725,0.0
56794.0,STARLINK-6060,PAYLOAD,2024-01-08 22:00:00,14.98330807,0.0003151,69.9999,158.2557,274.3395,92.9889,-0.00075182,-9.052e-05,0.0,0 STARLINK-6060,1 56794U 23078AD  24008.91667824 -.00009052  00000-0 -75182-3 0  9992,2 56794  69.9999 158.2557 0003151 274.3395  92.9889 14.98330807 34982,6950.19,96.107,574.245,569.865,0.0
56794.0,STARLINK-6060,PAYLOAD,2024-01-09 13:59:25,14.98329844,0.0002892,70.0004,156.5777,267.4201,92.6627,-1.7823e-05,-3.06e-06,0.0,0 STARLINK-6060,1 56794U 23078AD  24009.58293636 -.00000306  00000-0 -17823-4 0  9994,2 56794  70.0004 156.5777 0002892 267.4201  92.6627 14.98329844 34826,6950.193,96.107,574.068,570.048,0.0
56794.0,STARLINK-6060,PAYLOAD,2024-01-09 18:47:49,14.98330346,0.0002865,70.0004,156.0727,266.9802,93.1029,-9.7634e-06,-2.09e-06,0.0,0 STARLINK-6060,1 56794U 23078AD  24009.78321568 -.00000209  00000-0 -97634-5 0  9993,2 56794  70.0004 156.0727 0002865 266.9802  93.1029 14.98330346 35111,6950.192,96.107,574.048,570.066,0.0
56794.0,STARLINK-6060,PAYLOAD,2024-01-09 20:23:57,14.98331942,0.0002867,70.0005,155.9042,267.3269,92.7562,7.9843e-06,2e-08,0.0,0 STARLINK-6060,1 56794U 23078AD  24009.84997409  .00000002  00000-0  79843-5 0  9994,2 56794  70.0005 155.9042 0002867 267.3269  92.7562 14.98331942 34865,6950.187,96.107,574.045,570.059,0.0
56794.0,STARLINK-6060,PAYLOAD,2024-01-10 10:49:10,14.98329748,0.0002823,70.0006,154.3896,265.5347,94.549,1.5986e-06,-7.4e-07,0.0,0 STARLINK-6060,1 56794U 23078AD  24010.45081492 -.00000074  00000-0  15986-5 0  9997,2 56794  70.0006 154.3896 0002823 265.5347  94.5490 14.98329748 34956,6950.194,96.107,574.021,570.097,0.0
56794.0,STARLINK-6060,PAYLOAD,2024-01-10 18:49:50,14.98326358,0.0002804,70.0004,153.5472,265.6906,94.3933,8.3891e-05,9.08e-06,0.0,0 STARLINK-6060,1 56794U 23078AD  24010.78461502  .00000908  00000-0  83891-4 0  9991,2 56794  70.0004 153.5472 0002804 265.6906  94.3933 14.98326358 35265,6950.204,96.107,574.018,570.12,0.0
56794.0,STARLINK-6060,PAYLOAD,2024-01-11 14:03:27,14.98328642,0.000301,70.0002,151.5268,268.5634,91.518,2.7995e-05,2.41e-06,0.0,0 STARLINK-6060,1 56794U 23078AD  24011.58573410  .00000241  00000-0  27995-4 0  9995,2 56794  70.0002 151.5268 0003010 268.5634  91.5180 14.98328642 35120,6950.197,96.107,574.154,569.97,0.0
56794.0,STARLINK-6060,PAYLOAD,2024-01-11 18:51:51,14.98333203,0.0002872,70.0003,151.0222,267.5726,92.5104,3.1334e-05,2.81e-06,0.0,0 STARLINK-6060,1 56794U 23078AD  24011.78601095  .00000281  00000-0  31334-4 0  9994,2 56794  70.0003 151.0222 0002872 267.5726  92.5104 14.98333203 35410,6950.183,96.107,574.044,570.052,0.0
56794.0,STARLINK-6060,PAYLOAD,2024-01-12 10:53:12,14.98321596,0.0002439,70.0016,149.3419,252.4842,107.6051,-5.6782e-05,-7.7e-06,0.0,0 STARLINK-6060,1 56794U 23078AD  24012.45362162 -.00000770  00000-0 -56782-4 0  9997,2 56794  70.0016 149.3419 0002439 252.4842 107.6051 14.98321596 35515,6950.219,96.108,573.779,570.389,0.0
56794.0,STARLINK-6060,PAYLOAD,2024-01-12 14:05:29,14.98320819,0.0002642,70.0009,149.0043,260.6647,99.4213,-8.3169e-05,-1.085e-05,0.0,0 STARLINK-6060,1 56794U 23078AD  24012.58714370 -.00001085  00000-0 -83169-4 0  9992,2 56794  70.0009 149.0043 0002642 260.6647  99.4213 14.98320819 35275,6950.221,96.108,573.923,570.25,0.0
56794.0,STARLINK-6060,PAYLOAD,2024-01-12 20:30:00,14.9832917,0.0002986,70.0001,148.3304,270.6013,89.4804,-8.2764e-06,-1.92e-06,0.0,0 STARLINK-6060,1 56794U 23078AD  24012.85417744 -.00000192  00000-0 -82764-5 0  9996,2 56794  70.0001 148.3304 0002986 270.6013  89.4804 14.98329170 35317,6950.195,96.107,574.136,569.985,0.0
56794.0,STARLINK-6060,PAYLOAD,2024-01-13 12:31:21,14.98332811,0.0002975,70.0002,146.6483,268.4073,91.6745,1.3419e-05,6.7e-07,0.0,0 STARLINK-6060,1 56794U 23078AD  24013.52177467  .00000067  00000-0  13419-4 0  9995,2 56794  70.0002 146.6483 0002975 268.4073  91.6745 14.98332811 35412,6950.184,96.107,574.117,569.982,0.0
56794.0,STARLINK-6060,PAYLOAD,2024-01-13 18:55:53,14.98338973,0.0002902,70.0003,145.9756,267.8917,92.191,8.1245e-05,8.77e-06,0.0,0 STARLINK-6060,1 56794U 23078AD  24013.78880799  .00000877  00000-0  81245-4 0  9993,2 56794  70.0003 145.9756 0002902 267.8917  92.1910 14.98338973 35716,6950.165,96.106,574.047,570.013,0.0
56794.0,STARLINK-6060,PAYLOAD,2024-01-14 12:33:22,14.98343248,0.0002661,70.0013,144.1229,276.2035,83.8821,-0.00029273,-3.585e-05,0.0,0 STARLINK-6060,1 56794U 23078AD  24014.52317798 -.00003585  00000-0 -29273-3 0  9993,2 56794  70.0013 144.1229 0002661 276.2035  83.8821 14.98343248 35821,6950.152,96.106,573.866,570.167,0.0
56794.0,STARLINK-6060,PAYLOAD,2024-01-14 17:21:46,14.98335433,0.0002417,70.0013,143.6179,272.5698,87.5185,-0.00012979,-1.641e-05,0.0,0 STARLINK-6060,1 56794U 23078AD  24014.72345746 -.00001641  00000-0 -12979-3 0  9995,2 56794  70.0013 143.6179 0002417 272.5698  87.5185 14.98335433 35597,6950.176,96.107,573.721,570.361,0.0
